[{"OBJECT_NAME":"STRAND-1","OBJECT_ID":"2013-009E","EPOCH":"2026-03-09T21:53:59.161920","MEAN_MOTION":14.37095119,"ECCENTRICITY":0.00090423,"INCLINATION":98.3888,"RA_OF_ASC_NODE":251.5986,"ARG_OF_PERICENTER":161.0822,"MEAN_ANOMALY":199.0703,"EPHEMERIS_TYPE":0,"CLASSIFICATION_TYPE":"U","NORAD_CAT_ID":39090,"ELEMENT_SET_NO":999,"REV_AT_EPOCH":68280,"BSTAR":0.00017106883,"MEAN_MOTION_DOT":4.66e-6,"MEAN_MOTION_DDOT":0},{"OBJECT_NAME":"SL-8 R\/B","OBJECT_ID":"1975-112B","EPOCH":"2026-03-09T22:05:26.016864","MEAN_MOTION":14.38203886,"ECCENTRICITY":0.00144297,"INCLINATION":74.0629,"RA_OF_ASC_NODE":18.4872,"ARG_OF_PERICENTER":111.679,"MEAN_ANOMALY":248.5902,"EPHEMERIS_TYPE":0,"CLASSIFICATION_TYPE":"U","NORAD_CAT_ID":8459,"ELEMENT_SET_NO":999,"REV_AT_EPOCH":63190,"BSTAR":0.00011399235,"MEAN_MOTION_DOT":3.21e-6,"MEAN_MOTION_DDOT":0}]
